CTC1_L_00303001-01
1 10000U 25769YZ  26075.70033565  .00000000  00000+0  00000-0 0  9998
2 10000  75.0000   0.0000 0000000   0.0000   0.0000 14.70334635    12
CTC1_L_00303001-02
1 10001U 22388IL  26075.70033565  .00000000  00000+0  00000-0 0  9993
2 10001  75.0000   0.0000 0000000   0.0000  90.0000 14.70334635    12
CTC1_L_00303001-03
1 10002U 23635SU  26075.70033565  .00000000  00000+0  00000-0 0  9990
2 10002  75.0000   0.0000 0000000   0.0000 180.0000 14.70334635    13
CTC1_L_00303001-04
1 10003U 23885QG  26075.70033565  .00000000  00000+0  00000-0 0  9998
2 10003  75.0000   0.0000 0000000   0.0000 270.0000 14.70334635    14
CTC1_L_00303002-01
1 10004U 23136YG  26075.70033565  .00000000  00000+0  00000-0 0  9998
2 10004  75.0000  12.0000 0000000   0.0000  12.0000 14.70334635    12
CTC1_L_00303002-02
1 10005U 26167SL  26075.70033565  .00000000  00000+0  00000-0 0  9996
2 10005  75.0000  12.0000 0000000   0.0000 102.0000 14.70334635    13
CTC1_L_00303002-03
1 10006U 25574RI  26075.70033565  .00000000  00000+0  00000-0 0  9998
2 10006  75.0000  12.0000 0000000   0.0000 192.0000 14.70334635    13
CTC1_L_00303002-04
1 10007U 22897IT  26075.70033565  .00000000  00000+0  00000-0 0  9994
2 10007  75.0000  12.0000 0000000   0.0000 282.0000 14.70334635    14
CTC1_L_00303003-01
1 10008U 26210NF  26075.70033565  .00000000  00000+0  00000-0 0  9998
2 10008  75.0000  24.0000 0000000   0.0000  24.0000 14.70334635    12
CTC1_L_00303003-02
1 10009U 22783KN  26075.70033565  .00000000  00000+0  00000-0 0  9990
2 10009  75.0000  24.0000 0000000   0.0000 114.0000 14.70334635    13
CTC1_L_00303003-03
1 10010U 26411HD  26075.70033565  .00000000  00000+0  00000-0 0  9994
2 10010  75.0000  24.0000 0000000   0.0000 204.0000 14.70334635    15
CTC1_L_00303003-04
1 10011U 25357CN  26075.70033565  .00000000  00000+0  00000-0 0  9993
2 10011  75.0000  24.0000 0000000   0.0000 294.0000 14.70334635    15
CTC1_L_00303004-01
1 10012U 25227HQ  26075.70033565  .00000000  00000+0  00000-0 0  9990
2 10012  75.0000  36.0000 0000000   0.0000  36.0000 14.70334635    13
CTC1_L_00303004-02
1 10013U 25015TB  26075.70033565  .00000000  00000+0  00000-0 0  9996
2 10013  75.0000  36.0000 0000000   0.0000 126.0000 14.70334635    14
CTC1_L_00303004-03
1 10014U 25322QR  26075.70033565  .00000000  00000+0  00000-0 0  9998
2 10014  75.0000  36.0000 0000000   0.0000 216.0000 14.70334635    15
CTC1_L_00303004-04
1 10015U 22300LN  26075.70033565  .00000000  00000+0  00000-0 0  9992
2 10015  75.0000  36.0000 0000000   0.0000 306.0000 14.70334635    16
CTC1_L_00303005-01
1 10016U 23886AO  26075.70033565  .00000000  00000+0  00000-0 0  9993
2 10016  75.0000  48.0000 0000000   0.0000  48.0000 14.70334635    13
CTC1_L_00303005-02
1 10017U 24435WN  26075.70033565  .00000000  00000+0  00000-0 0  9995
2 10017  75.0000  48.0000 0000000   0.0000 138.0000 14.70334635    14
CTC1_L_00303005-03
1 10018U 23741OQ  26075.70033565  .00000000  00000+0  00000-0 0  9995
2 10018  75.0000  48.0000 0000000   0.0000 228.0000 14.70334635    15
CTC1_L_00303005-04
1 10019U 24086Y   26075.70033565  .00000000  00000+0  00000-0 0  9999
2 10019  75.0000  48.0000 0000000   0.0000 318.0000 14.70334635    16
CTC1_L_00303006-01
1 10020U 25789CW  26075.70033565  .00000000  00000+0  00000-0 0  9992
2 10020  75.0000  60.0000 0000000   0.0000  60.0000 14.70334635    16
CTC1_L_00303006-02
1 10021U 23463BW  26075.70033565  .00000000  00000+0  00000-0 0  9990
2 10021  75.0000  60.0000 0000000   0.0000 150.0000 14.70334635    17
CTC1_L_00303006-03
1 10022U 23522OC  26075.70033565  .00000000  00000+0  00000-0 0  9997
2 10022  75.0000  60.0000 0000000   0.0000 240.0000 14.70334635    18
CTC1_L_00303006-04
1 10023U 24631WF  26075.70033565  .00000000  00000+0  00000-0 0  9990
2 10023  75.0000  60.0000 0000000   0.0000 330.0000 14.70334635    19
CTC1_L_00303007-01
1 10024U 23712QO  26075.70033565  .00000000  00000+0  00000-0 0  9990
2 10024  75.0000  72.0000 0000000   0.0000  72.0000 14.70334635    16
CTC1_L_00303007-02
1 10025U 23353BQ  26075.70033565  .00000000  00000+0  00000-0 0  9992
2 10025  75.0000  72.0000 0000000   0.0000 162.0000 14.70334635    17
CTC1_L_00303007-03
1 10026U 22599HF  26075.70033565  .00000000  00000+0  00000-0 0  9994
2 10026  75.0000  72.0000 0000000   0.0000 252.0000 14.70334635    18
CTC1_L_00303007-04
1 10027U 26235DQ  26075.70033565  .00000000  00000+0  00000-0 0  9996
2 10027  75.0000  72.0000 0000000   0.0000 342.0000 14.70334635    19
CTC1_L_00303008-01
1 10028U 25653LP  26075.70033565  .00000000  00000+0  00000-0 0  9990
2 10028  75.0000  84.0000 0000000   0.0000  84.0000 14.70334635    16
CTC1_L_00303008-02
1 10029U 24530XI  26075.70033565  .00000000  00000+0  00000-0 0  9994
2 10029  75.0000  84.0000 0000000   0.0000 174.0000 14.70334635    17
CTC1_L_00303008-03
1 10030U 26263CU  26075.70033565  .00000000  00000+0  00000-0 0  9991
2 10030  75.0000  84.0000 0000000   0.0000 264.0000 14.70334635    19
CTC1_L_00303008-04
1 10031U 24494HH  26075.70033565  .00000000  00000+0  00000-0 0  9996
2 10031  75.0000  84.0000 0000000   0.0000 354.0000 14.70334635    10
CTC1_L_00303009-01
1 10032U 23355OP  26075.70033565  .00000000  00000+0  00000-0 0  9992
2 10032  75.0000  96.0000 0000000   0.0000  96.0000 14.70334635    17
CTC1_L_00303009-02
1 10033U 26042BO  26075.70033565  .00000000  00000+0  00000-0 0  9999
2 10033  75.0000  96.0000 0000000   0.0000 186.0000 14.70334635    18
CTC1_L_00303009-03
1 10034U 23868YJ  26075.70033565  .00000000  00000+0  00000-0 0  9993
2 10034  75.0000  96.0000 0000000   0.0000 276.0000 14.70334635    19
CTC1_L_00303009-04
1 10035U 26123LM  26075.70033565  .00000000  00000+0  00000-0 0  9991
2 10035  75.0000  96.0000 0000000   0.0000   6.0000 14.70334635    11
CTC1_L_00303010-01
1 10036U 26775TA  26075.70033565  .00000000  00000+0  00000-0 0  9995
2 10036  75.0000 108.0000 0000000   0.0000 108.0000 14.70334635    19
CTC1_L_00303010-02
1 10037U 25124YW  26075.70033565  .00000000  00000+0  00000-0 0  9993
2 10037  75.0000 108.0000 0000000   0.0000 198.0000 14.70334635    19
CTC1_L_00303010-03
1 10038U 24745MM  26075.70033565  .00000000  00000+0  00000-0 0  9992
2 10038  75.0000 108.0000 0000000   0.0000 288.0000 14.70334635    10
CTC1_L_00303010-04
1 10039U 24237MJ  26075.70033565  .00000000  00000+0  00000-0 0  9999
2 10039  75.0000 108.0000 0000000   0.0000  18.0000 14.70334635    12
CTC1_L_00303011-01
1 10040U 26909HH  26075.70033565  .00000000  00000+0  00000-0 0  9999
2 10040  75.0000 120.0000 0000000   0.0000 120.0000 14.70334635    12
CTC1_L_00303011-02
1 10041U 22751JN  26075.70033565  .00000000  00000+0  00000-0 0  9991
2 10041  75.0000 120.0000 0000000   0.0000 210.0000 14.70334635    13
CTC1_L_00303011-03
1 10042U 24814DM  26075.70033565  .00000000  00000+0  00000-0 0  9994
2 10042  75.0000 120.0000 0000000   0.0000 300.0000 14.70334635    14
CTC1_L_00303011-04
1 10043U 22574TN  26075.70033565  .00000000  00000+0  00000-0 0  9996
2 10043  75.0000 120.0000 0000000   0.0000  30.0000 14.70334635    15
CTC1_L_00303012-01
1 10044U 22357MA  26075.70033565  .00000000  00000+0  00000-0 0  9996
2 10044  75.0000 132.0000 0000000   0.0000 132.0000 14.70334635    12
CTC1_L_00303012-02
1 10045U 26310ZZ  26075.70033565  .00000000  00000+0  00000-0 0  9990
2 10045  75.0000 132.0000 0000000   0.0000 222.0000 14.70334635    13
CTC1_L_00303012-03
1 10046U 26490HS  26075.70033565  .00000000  00000+0  00000-0 0  9990
2 10046  75.0000 132.0000 0000000   0.0000 312.0000 14.70334635    14
CTC1_L_00303012-04
1 10047U 24608JO  26075.70033565  .00000000  00000+0  00000-0 0  9990
2 10047  75.0000 132.0000 0000000   0.0000  42.0000 14.70334635    15
CTC1_L_00303013-01
1 10048U 24696JT  26075.70033565  .00000000  00000+0  00000-0 0  9998
2 10048  75.0000 144.0000 0000000   0.0000 144.0000 14.70334635    12
CTC1_L_00303013-02
1 10049U 24158OR  26075.70033565  .00000000  00000+0  00000-0 0  9992
2 10049  75.0000 144.0000 0000000   0.0000 234.0000 14.70334635    13
CTC1_L_00303013-03
1 10050U 26181MD  26075.70033565  .00000000  00000+0  00000-0 0  9992
2 10050  75.0000 144.0000 0000000   0.0000 324.0000 14.70334635    15
CTC1_L_00303013-04
1 10051U 26238VN  26075.70033565  .00000000  00000+0  00000-0 0  9996
2 10051  75.0000 144.0000 0000000   0.0000  54.0000 14.70334635    16
CTC1_L_00303014-01
1 10052U 22248FZ  26075.70033565  .00000000  00000+0  00000-0 0  9994
2 10052  75.0000 156.0000 0000000   0.0000 156.0000 14.70334635    13
CTC1_L_00303014-02
1 10053U 24204KS  26075.70033565  .00000000  00000+0  00000-0 0  9999
2 10053  75.0000 156.0000 0000000   0.0000 246.0000 14.70334635    14
CTC1_L_00303014-03
1 10054U 26403VQ  26075.70033565  .00000000  00000+0  00000-0 0  9993
2 10054  75.0000 156.0000 0000000   0.0000 336.0000 14.70334635    15
CTC1_L_00303014-04
1 10055U 24578MY  26075.70033565  .00000000  00000+0  00000-0 0  9995
2 10055  75.0000 156.0000 0000000   0.0000  66.0000 14.70334635    16
CTC1_L_00303015-01
1 10056U 22432AI  26075.70033565  .00000000  00000+0  00000-0 0  9993
2 10056  75.0000 168.0000 0000000   0.0000 168.0000 14.70334635    13
CTC1_L_00303015-02
1 10057U 26602JB  26075.70033565  .00000000  00000+0  00000-0 0  9997
2 10057  75.0000 168.0000 0000000   0.0000 258.0000 14.70334635    14
CTC1_L_00303015-03
1 10058U 22956VF  26075.70033565  .00000000  00000+0  00000-0 0  9996
2 10058  75.0000 168.0000 0000000   0.0000 348.0000 14.70334635    15
CTC1_L_00303015-04
1 10059U 24830YF  26075.70033565  .00000000  00000+0  00000-0 0  9990
2 10059  75.0000 168.0000 0000000   0.0000  78.0000 14.70334635    16
CTC1_L_00303016-01
1 10060U 26043QY  26075.70033565  .00000000  00000+0  00000-0 0  9990
2 10060  75.0000 180.0000 0000000   0.0000 180.0000 14.70334635    16
CTC1_L_00303016-02
1 10061U 25703EP  26075.70033565  .00000000  00000+0  00000-0 0  9993
2 10061  75.0000 180.0000 0000000   0.0000 270.0000 14.70334635    17
